Name,Street,City,State,ZipCode
Laurens Bilton,3990 Hagan Crossing,Madison,WI,53726
Gaynor Keedwell,44 Ludington Center,Omaha,NE,68134
Vlad Boarer,98 Trailsway Hill,Anchorage,AK,99599
Drucill Bitchener,46031 Fairfield Alley,San Jose,CA,95160
Cameron Aucutt,37 Scofield Park,Baton Rouge,LA,70815
Lindsey Dimmack,66356 Hallows Crossing,Atlanta,GA,31190
Katerine Farrer,39404 Novick Center,Greenville,SC,29605
Ivar Giveen,6492 Bartelt Way,Bridgeport,CT,06606
Collie Layus,61391 Mccormick Court,Savannah,GA,31422
Roderich Fidilis,8066 Burrows Pass,Charleston,WV,25336
Vidovic Van Zon,09417 Lawn Point,Topeka,KS,66699
Mandi Smallwood,9 Delladonna Point,Washington,DC,20580
Elmore Magovern,2 Clove Trail,Austin,TX,78732
Darlleen Bellee,2 Oxford Street,Miami,FL,33196
Cullan Rowberry,7978 Grim Lane,Fresno,CA,93740
Deeyn MacTrustam,9821 Hollow Ridge Drive,Fort Lauderdale,FL,33345
Edwina Rees,499 Eggendart Terrace,Saint Augustine,FL,32092
Roman Antonat,4 Sachtjen Pass,New York City,NY,10060
Jeffie Beagley,89243 Summer Ridge Plaza,Brooklyn,NY,11254
Delores Bramsen,9 Golden Leaf Alley,South Bend,IN,46614
Rebecka MacGahy,14658 Sloan Lane,Hialeah,FL,33013
Ferdie Dunstall,0847 Union Hill,Paterson,NJ,07522
Derrick Tallman,3369 Pine View Court,Fullerton,CA,92640
Emalee Fulstow,8 Heffernan Park,Mobile,AL,36605
Krispin Serck,16 Alpine Plaza,Lynchburg,VA,24515
Guthrey Flury,54 Village Hill,Columbia,SC,29208
Madlen Vanyushkin,37 Jackson Park,Tulsa,OK,74116
Angel McGriffin,8 Fairfield Avenue,Chicago,IL,60609
Zak Ferrara,4995 Mcguire Drive,Toledo,OH,43635
Stavros Scorthorne,301 3rd Road,Tampa,FL,33661
Arline Dunridge,8952 Sachtjen Way,Washington,DC,20022
Giordano Truelove,82 Montana Street,Washington,DC,20057
Ronnie Streets,3 Roxbury Crossing,Miami,FL,33129
Kath Benjafield,2796 Michigan Alley,Akron,OH,44393
Dione Stanyer,3 Lawn Park,Albuquerque,NM,87190
Rochell Probin,1961 Amoth Hill,Boise,ID,83705
Aldus Blakes,3 Ludington Center,Charlotte,NC,28225
Kiel Sievewright,95290 Erie Plaza,Atlanta,GA,30392
Biddy McGavin,43733 Arapahoe Pass,Littleton,CO,80127
Ardine Sail,3 Waubesa Alley,Saint Petersburg,FL,33737
Keane McSperrin,981 Warner Street,Minneapolis,MN,55458
Ware Critchlow,819 Moland Circle,Punta Gorda,FL,33982
Lydon Parlet,3914 Blue Bill Park Point,San Antonio,TX,78285
Tabbie Penticoot,14 Fremont Hill,Mc Keesport,PA,15134
Tilda Brixey,26 Bayside Terrace,Minneapolis,MN,55441
Kitty Easson,65 Hayes Trail,Grand Rapids,MI,49544
Gayelord Tebbet,169 Holmberg Lane,Las Vegas,NV,89120
Georgine Finlayson,197 Lawn Avenue,Yonkers,NY,10705
Horton Turbern,45 Waubesa Hill,Corpus Christi,TX,78426
Donavon Creswell,472 Transport Way,Duluth,GA,30195
Tara Paggitt,091 Pleasure Point,Columbus,GA,31998
Eada Berzon,18 Harbort Avenue,Tulsa,OK,74116
Corny Bolle,302 Granby Hill,Pittsburgh,PA,15240
Rodge Peterken,35494 Alpine Pass,El Paso,TX,79934
Elene Benedtti,62 Kinsman Crossing,Irving,TX,75037
Elizabet Cattow,1 Stoughton Avenue,Milwaukee,WI,53277
Hirsch McVitie,12 Kingsford Lane,Mobile,AL,36605
Janna Hyman,91 Summerview Point,Hartford,CT,06145
Irena Downham,5579 Valley Edge Plaza,Philadelphia,PA,19146
Trueman Itzig,47942 Bultman Alley,Des Moines,IA,50347
Tamma Yokelman,01 Jay Way,Hattiesburg,MS,39404
Rosaline Stead,96576 Red Cloud Crossing,Boise,ID,83732
Pavel Jedrzaszkiewicz,2462 Cardinal Terrace,Erie,PA,16550
Shepard MacCome,94 Hazelcrest Place,New York City,NY,10203
Olivie Feldhammer,2468 Lighthouse Bay Lane,Atlanta,GA,30323
Brinn Schuricke,8 Donald Center,Atlanta,GA,30336
Gale Mellows,573 Meadow Valley Drive,Dallas,TX,75397
Courtnay Bees,07 Oriole Avenue,Jacksonville,FL,32225
Joseph Hadigate,3 Hansons Court,Columbus,GA,31904
Curr Champkins,41 Buhler Trail,Nashville,TN,37210
Tanney Condie,97 Dryden Court,Sioux City,IA,51110
Doralyn Mowat,91 5th Junction,Lancaster,CA,93584
Tanhya Koschek,0959 Nancy Road,Dayton,OH,45403
Jenn Wyer,9 Continental Trail,San Diego,CA,92121
Vittorio Trotman,730 Caliangt Lane,Manchester,NH,03105
Nanon Locke,4596 Vidon Road,Bradenton,FL,34205
Cindie Cardew,73 Corry Street,Fort Smith,AR,72916
Wanda Davidi,4 Express Trail,Lubbock,TX,79452
Tori Cant,96677 Dovetail Plaza,Indianapolis,IN,46295
Annetta Mabbe,941 Leroy Parkway,San Francisco,CA,94126
Rowen Mansuer,47672 Nobel Hill,North Las Vegas,NV,89087
Marigold Fawdry,9 Corscot Circle,Miami,FL,33153
Gherardo Schermick,34 Northwestern Drive,Washington,DC,20244
Donny Voysey,18 Kings Hill,Vienna,VA,22184
Delmore Falconbridge,220 Dwight Park,Detroit,MI,48258
Ravi Benley,76715 Maple Plaza,New Haven,CT,06533
Rayna Heggison,3 Cody Place,San Jose,CA,95173
Carina Collumbell,367 Mendota Junction,Elmira,NY,14905
Sindee Havvock,389 Sutteridge Circle,Minneapolis,MN,55417
Luce Trays,27 Annamark Plaza,Memphis,TN,38168
Jeannette Bortol,02692 Coolidge Plaza,Colorado Springs,CO,80930
Valdemar Boykett,4060 Kinsman Hill,Sparks,NV,89436
Law Oppy,303 Bluejay Road,Fresno,CA,93715
Otes De Domenico,10660 Duke Court,Peoria,IL,61640
Peterus Roakes,591 Rutledge Drive,Atlanta,GA,30340
Myrna Shrubshall,3093 Pierstorff Plaza,Lexington,KY,40524
Alden Culley,724 Clyde Gallagher Circle,Washington,DC,20557
Geoffry O'Hagan,1 Bay Place,Corpus Christi,TX,78410
Netti Bills,1952 Pankratz Court,Orlando,FL,32819
Viola Goulding,443 Monument Crossing,Topeka,KS,66611
Francisco Saffell,376 Nelson Terrace,Springfield,MA,01152
Jenda Burdis,1430 Dwight Place,Toledo,OH,43666
Margaretta Whithalgh,2 Fairview Way,Hot Springs National Park,AR,71914
Dion Yurmanovev,0 Bowman Circle,Fresno,CA,93773
Margery Ilyushkin,1 Bellgrove Court,Stockton,CA,95298
Rhetta Lansberry,312 Laurel Plaza,Whittier,CA,90605
Tomi Cashford,7546 Lunder Pass,Kalamazoo,MI,49006
Bernette Inkpen,287 Arkansas Crossing,Philadelphia,PA,19109
Hershel Siaskowski,52372 Warrior Hill,Lancaster,PA,17622
Bernardine Whight,9466 Parkside Alley,Fort Wayne,IN,46852
Aleen Kemsley,99820 Fisk Place,Ocala,FL,34474
Janek Dodgshon,209 Maywood Point,Pittsburgh,PA,15274
Reinwald Origan,5 Monterey Way,Richmond,CA,94807
Vaughn Teale,264 Green Ridge Court,Baton Rouge,LA,70805
Cecilla Bolgar,9 Butterfield Road,Houston,TX,77288
Anna-diane Chasle,444 Cardinal Lane,Sioux Falls,SD,57105
Caresa Uwins,59344 Bobwhite Parkway,Cincinnati,OH,45254
Everett Blackaller,625 Darwin Park,Richmond,VA,23225
Pietrek Menear,99220 Forest Court,Knoxville,TN,37995
Felice Cawdell,707 Scofield Junction,Detroit,MI,48232
Bronson Cisland,48 Spohn Crossing,Valley Forge,PA,19495
Ellswerth Brotherton,063 Badeau Avenue,Hicksville,NY,11854
Burton Wild,13480 Alpine Point,Akron,OH,44305
Ronni Jobling,0 Lindbergh Center,Saint Petersburg,FL,33710
Seward Archibold,120 Monica Junction,Pittsburgh,PA,15215
Wesley Kidstone,6747 Daystar Crossing,Topeka,KS,66606
Gerta Giamuzzo,45 Maple Wood Center,South Bend,IN,46614
Zolly Frail,9640 La Follette Point,New York City,NY,10175
Gorden Strevens,4731 Gale Road,Fort Wayne,IN,46852
Bernadine Stott,1 Carey Junction,Norwalk,CT,06854
Lorilyn Bingall,97429 Oriole Pass,Brooklyn,NY,11231
Dicky Flatte,9199 Granby Trail,Pittsburgh,PA,15210
Alwyn Thebeaud,1598 Chive Pass,Des Moines,IA,50347
Petronella Reinmar,9396 Darwin Crossing,Portland,OR,97221
Sianna Badman,296 Anniversary Lane,Mobile,AL,36641
Celestyn Marishenko,73 Quincy Way,Miami,FL,33283
Scarface Polhill,8103 Morning Circle,Pittsburgh,PA,15235
Emelita Guirardin,35790 Cordelia Hill,Merrifield,VA,22119
Lindsy Spicer,37377 Elgar Hill,Houston,TX,77218
Aurelia Wensley,518 Lillian Point,Houston,TX,77090
Dodi Grinham,305 Melrose Junction,Portland,OR,97229
Meggy Volet,6 Crownhardt Crossing,Washington,DC,20404
Town Millhouse,44882 Hermina Avenue,Jacksonville,FL,32255
Elliott Harrowsmith,2053 Brentwood Alley,Gadsden,AL,35905
Lory Pennicard,26648 Sunbrook Hill,Phoenix,AZ,85005
Lucine Kitter,85 Mallard Lane,Houston,TX,77065
Krysta Streight,63 Sommers Circle,Paterson,NJ,07505
Leon Gravells,45338 Warbler Point,Cleveland,OH,44111
Holmes Eddie,18 Gateway Park,Chicago,IL,60646
Georgena Edgehill,16 Menomonie Street,Daytona Beach,FL,32128
Garnet Martynikhin,1 Hoepker Parkway,El Paso,TX,79968
Jerrie Yeell,16 Badeau Trail,Watertown,MA,02472
Maryanna Jeram,826 Summerview Park,Greensboro,NC,27455
Milissent Sewter,21798 American Park,Dayton,OH,45454
Genovera Belvin,34 Mallory Circle,Saint Paul,MN,55188
Margarette Rowen,9484 Crescent Oaks Lane,Hartford,CT,06140
Ardyce Deeson,3537 American Plaza,Tallahassee,FL,32314
Marin Petken,7295 Dakota Road,Bethlehem,PA,18018
Glyn Hearnshaw,83539 Continental Avenue,Springfield,IL,62711
Noland Leyman,9982 Garrison Center,Winter Haven,FL,33884
Esdras Wale,373 Annamark Trail,Dallas,TX,75265
Irina Horsfield,1305 Stone Corner Street,Oklahoma City,OK,73173
Elysha L'Homme,17850 Macpherson Crossing,Tampa,FL,33605
Zita Dunniom,9 Browning Hill,Anchorage,AK,99522
Lianne Heaseman,5 Dixon Street,Saint Louis,MO,63167
Billi Twomey,45976 Vera Crossing,Naples,FL,34102
Wilburt Bruineman,55 Mccormick Drive,Bismarck,ND,58505
Kale MacCroary,026 Summit Center,Punta Gorda,FL,33982
Barri Lodford,95665 Elka Circle,Wilmington,DE,19897
Robyn Restill,42 Sommers Court,Gulfport,MS,39505
Colas Sturley,9 Farragut Crossing,Maple Plain,MN,55572
Agneta Thoresby,273 Lake View Point,Springfield,IL,62723
Konstantin Scarman,9638 Briar Crest Terrace,Kansas City,MO,64190
Jesse Popworth,2205 Crest Line Avenue,Corpus Christi,TX,78475
Eachelle Impson,90 Brown Hill,Lees Summit,MO,64082
Nydia Guilloud,45 Miller Circle,Charlotte,NC,28210
Allen Giamelli,51 Walton Point,Washington,DC,20566
Bourke Renehan,7 Kings Crossing,Washington,DC,20380
Marney Burnsyde,743 Browning Plaza,Columbus,OH,43215
Zorah Stag,25 Hollow Ridge Junction,San Bernardino,CA,92410
Gardner Mallett,34 Jay Center,Boynton Beach,FL,33436
Monti Honywill,9926 Pierstorff Point,Staten Island,NY,10310
Gray Shayes,3 Maple Wood Street,Lubbock,TX,79491
Madalena Lynch,3498 Merchant Drive,North Port,FL,34290
Adriana Ouchterlony,42476 Riverside Terrace,Fort Worth,TX,76178
Arne Sleep,213 Carioca Avenue,Santa Barbara,CA,93106
Kirstin Brownhill,40 Monument Park,Toledo,OH,43656
Frayda Kosel,25 Hauk Pass,Charlotte,NC,28299
Kayle Tyrer,91 Walton Junction,Seattle,WA,98109
Sibelle McAulay,34459 Fairview Drive,Dallas,TX,75379
Jamil Hadingham,15 Kim Center,Trenton,NJ,08650
Sarge Newtown,3057 Dunning Drive,Flint,MI,48550
Ronalda Garrow,47531 Paget Pass,Wichita,KS,67220
Tasia Goldsmith,559 Moulton Road,Kansas City,MO,64101
Meggi Westfield,087 Vernon Street,Boise,ID,83727
Maryanna Rubertis,26 Merrick Drive,Tulsa,OK,74133
Lisha Bickell,3757 Elka Avenue,Greensboro,NC,27404
Allistir McCreery,23159 Kinsman Junction,Saint Paul,MN,55172
Marika Guilloux,180 Old Gate Way,Fort Lauderdale,FL,33315
Audra Lademann,9938 Vernon Way,Houston,TX,77212
Talya Delucia,6 Tennessee Alley,Racine,WI,53405
Meggy Skeermor,539 Cardinal Place,Boston,MA,02109
Eb McGeechan,6 Buena Vista Place,Washington,DC,20546
Jayson Duker,745 Del Sol Court,Santa Barbara,CA,93106
Verena Koppel,5651 Hermina Plaza,Chicago,IL,60619
Ira Abrahamovitz,37605 Tennessee Avenue,San Antonio,TX,78240
Waiter d'Escoffier,43635 Towne Plaza,Charleston,WV,25336
Renelle Siemens,05 Vermont Plaza,Phoenix,AZ,85010
Ki Jansey,07 Farmco Court,Fort Collins,CO,80525
Ashlen Ker,292 Little Fleur Street,Tacoma,WA,98442
Velma Skelington,6718 Prairie Rose Road,Washington,DC,20508
Theresita Braidwood,4 John Wall Avenue,El Paso,TX,88558
Valentia Yaus,1185 Sycamore Point,Cleveland,OH,44191
Herve Knell,65 Oxford Hill,Birmingham,AL,35290
Jaye Ludlamme,6433 Truax Circle,Tampa,FL,33625
Violante Aleshkov,9462 Monument Crossing,Fort Smith,AR,72905
Agna Fayne,76 Texas Crossing,Tulsa,OK,74103
Davin Fee,709 Farmco Street,Orlando,FL,32825
Al Dymocke,4 Shelley Lane,Lansing,MI,48930
Ula Laba,60 Merchant Terrace,Pittsburgh,PA,15255
Tedda Lagden,181 Manitowish Hill,Albany,NY,12262
Kayla Temperton,60 Mitchell Point,Oklahoma City,OK,73147
Calli Healing,5 Mitchell Center,Staten Island,NY,10310
Thaddeus Duly,5624 Westridge Parkway,New Orleans,LA,70142
Raff Huggill,89330 Autumn Leaf Plaza,Jackson,TN,38308
Jenilee Tweede,9296 Sundown Junction,Buffalo,NY,14269
Nikoletta Grenshields,75067 Holy Cross Way,Austin,TX,78754
Candi Saltman,17092 Farragut Junction,Dallas,TX,75205
Maye Grimsley,56 Marquette Court,Saint Paul,MN,55146
Tedmund Sore,34407 Almo Circle,Saint Augustine,FL,32092
Johnnie Bentham,9969 Sunfield Crossing,Austin,TX,78715
Briney Deveraux,7 Roxbury Avenue,Trenton,NJ,08619
Derrick Kunze,98084 Mallard Terrace,Lakewood,WA,98498
Howard Severs,39378 Dawn Alley,Boise,ID,83732
Krispin Lightwing,41 Nancy Center,Memphis,TN,38181
Othelia Ekins,750 Surrey Pass,Austin,TX,78726
Wes Shalliker,360 Di Loreto Center,Los Angeles,CA,90060
Cecil Muckle,4897 Macpherson Park,Saint Louis,MO,63104
El Janaszewski,66794 Artisan Lane,New Orleans,LA,70165
Yolande Guise,470 Northwestern Drive,Memphis,TN,38131
Cass Dukelow,7945 Golf Course Junction,Memphis,TN,38150
Phil Jaye,35750 Jenna Junction,Charlottesville,VA,22908
Sibella Knee,426 Utah Way,Las Vegas,NV,89160
Stevena Kiraly,14770 Lillian Hill,Richmond,VA,23285
Codie Goncalo,7 Talisman Crossing,Nashville,TN,37228
Johan Geydon,1 Green Pass,Brooksville,FL,34605
Violet Fowden,6795 Ilene Junction,Cincinnati,OH,45999
Luther Burkhill,7 Rieder Pass,Minneapolis,MN,55470
Roch Tuke,8765 Rigney Crossing,Hyattsville,MD,20784
Lynnea Butterly,7 Esch Crossing,Littleton,CO,80127
Tildi Howel,183 Arrowood Parkway,Cleveland,OH,44177
Zachery Garratt,8591 Old Shore Alley,Macon,GA,31217
Erv Hofler,8 2nd Trail,Fort Lauderdale,FL,33325
Bryan Lamke,15437 West Crossing,Houston,TX,77070
Woody Glede,8327 Mayfield Park,Charlotte,NC,28215
Bank Chess,86985 Badeau Junction,Rochester,NY,14646
Lucretia Zotto,01520 Mcbride Point,Buffalo,NY,14210
Caron Climo,388 Donald Plaza,San Francisco,CA,94126
Rawley Crafts,12 Scofield Parkway,Peoria,IL,61605
Carr Elgie,46 Schlimgen Park,Montgomery,AL,36195
Isabelle Darque,612 Summerview Pass,Spokane,WA,99215
Agretha Cahalan,48 Sullivan Park,New York City,NY,10090
Leora Vondrasek,9889 Oak Valley Lane,Daytona Beach,FL,32128
Pier Blaver,725 Aberg Court,Glendale,CA,91205
Hildagard Brisland,12256 6th Lane,Indianapolis,IN,46247
Chris Bearcroft,21060 Marquette Street,Los Angeles,CA,90076
Pat Mushet,4 Michigan Street,Phoenix,AZ,85083
Wyatt Wyeld,2805 Declaration Center,Arlington,VA,22205
Audi Kerss,131 Sage Lane,Washington,DC,20442
Greta Bulpitt,872 Petterle Way,Reading,PA,19605
Lou Mc Menamin,2 Bartillon Lane,Port Charlotte,FL,33954
Rowan Billany,1921 Gale Alley,Greensboro,NC,27499
Meggie Eddisforth,0 Old Shore Road,Spartanburg,SC,29305
Barrie Rule,8 Forest Pass,Helena,MT,59623
Kaila Lazenbury,3938 Golf Park,Miami,FL,33153
Maribel Otson,0041 Schmedeman Trail,Huntington,WV,25770
Theresina Derby,2 Hazelcrest Pass,Salt Lake City,UT,84120
Rivy Basford,51875 Basil Hill,Johnstown,PA,15906
Lucio D'eye,4 Warrior Park,Savannah,GA,31416
Isidoro Martellini,72737 La Follette Pass,Spartanburg,SC,29305
Joelynn Reily,5453 Service Hill,Anchorage,AK,99507
Mozelle Moyser,3 Dawn Avenue,Huntington,WV,25721
Renado Meanwell,1 Wayridge Parkway,Sacramento,CA,95813
Omero Hamelyn,53834 Fieldstone Crossing,Jefferson City,MO,65110
Merci Polo,398 Loeprich Crossing,Birmingham,AL,35236
Cassi Aynscombe,0076 2nd Road,Baton Rouge,LA,70810
Fanya Brompton,19 Clemons Alley,Honolulu,HI,96835
Mathew Brady,37653 Graedel Plaza,Denver,CO,80299
Nikolaus Bartlosz,9 Donald Hill,Fresno,CA,93721
Markus Clail,069 Scott Circle,San Diego,CA,92191
Pearl McClaren,545 Tony Street,Columbus,OH,43284
Deirdre Ashfull,6 Birchwood Trail,Albuquerque,NM,87140
Vin Yegorshin,57737 Corben Terrace,Melbourne,FL,32941
Elaina Payfoot,2 Summer Ridge Avenue,Wichita,KS,67230
Skell Oleksinski,497 Orin Crossing,Brooklyn,NY,11231
Vasilis Golsthorp,6 Dorton Hill,Edmond,OK,73034
Tania Yurkin,4 Prentice Terrace,Saint Louis,MO,63110
Saunders Tresvina,97597 Hagan Terrace,Dallas,TX,75310
Constantine Montford,71422 Grim Center,Lehigh Acres,FL,33972
Vaughn Buckenham,39362 Kinsman Alley,Norwalk,CT,06859
Ado Blenkin,4679 Logan Alley,Jersey City,NJ,07310
Sile Underwood,70 Ruskin Parkway,Miami,FL,33180
Adrien Eskrigg,99418 Portage Crossing,El Paso,TX,79911
Gardy Fraser,82 Debra Drive,New Orleans,LA,70149
Issi Bosward,910 Mockingbird Place,Birmingham,AL,35295
Thorin Keysall,15 Pankratz Point,Alexandria,VA,22309
Camellia Rountree,21972 Hooker Junction,Atlanta,GA,30358
Carling Dafydd,215 Spenser Alley,Omaha,NE,68197
Jonie De Carolis,274 Fair Oaks Way,Des Moines,IA,50310
Shirleen Larive,5133 Green Ridge Junction,Punta Gorda,FL,33982
Lucille Gadie,9232 Village Green Avenue,Springfield,VA,22156
Rani Fountaine,53409 Harbort Place,Rochester,NY,14683
Teodora Durek,84204 Meadow Ridge Drive,Washington,DC,20414
Doralynn Farry,521 Granby Point,Des Moines,IA,50347
Free Border,702 Hermina Drive,Anaheim,CA,92805
Nelia Stathor,0461 Schmedeman Court,Los Angeles,CA,90040
Bonita Simoni,846 Loomis Avenue,Katy,TX,77493
Sunny Aspinwall,0134 Kipling Hill,Fort Worth,TX,76178
Orrin Excell,98080 Atwood Junction,Denver,CO,80255
Fayth Derell,3 Pearson Alley,New York City,NY,10079
Hermon Broszkiewicz,760 Pawling Hill,Virginia Beach,VA,23471
Nikos Fleury,6 Scoville Avenue,San Jose,CA,95194
Jorrie Alastair,73 Southridge Circle,Dallas,TX,75251
Ardyth Collingridge,1 Old Shore Road,Pasadena,CA,91131
Annadiana Worcester,64 Red Cloud Place,Huntington Beach,CA,92648
Gerri Feldhorn,3046 Troy Crossing,Atlanta,GA,31136
Wat Escreet,79 Hooker Center,San Bernardino,CA,92424
Richmound Simonsson,16675 Merry Terrace,El Paso,TX,88569
Devland Weatherby,8 Kropf Way,Kansas City,MO,64125
Agosto Tapsfield,33027 Merchant Way,Denver,CO,80241
Hugues Dwyr,5843 Steensland Lane,Alexandria,VA,22333
Elysha Sweetman,5 Maple Wood Court,Washington,DC,20016
Dorey Fison,00291 Tony Circle,New York City,NY,10275
Gretel Biddleston,05224 Helena Crossing,Memphis,TN,38119
Abelard McCrudden,92 Barnett Parkway,Detroit,MI,48217
Raymund Grushin,85718 Northland Parkway,West Hartford,CT,06127
Camey Rafter,67 Morningstar Place,Clearwater,FL,34615
Meggi Flitcroft,41715 Mifflin Road,Seattle,WA,98140
Benito Haworth,6520 Graedel Lane,Rochester,NY,14683
Micheal Menel,0 Bultman Center,Birmingham,AL,35205
Glynn Maundrell,159 Harper Trail,Wilmington,DE,19897
Christiano Cockle,936 Saint Paul Place,Crawfordsville,IN,47937
Bunnie Whyard,67 Steensland Crossing,Madison,WI,53716
Vick Paunsford,828 3rd Pass,Danbury,CT,06816
Henka Masser,37 Di Loreto Place,Columbia,SC,29220
Dianne Shevlin,7 Londonderry Lane,Wichita,KS,67260
Evonne Linke,5 Merchant Hill,Abilene,TX,79605
Ber Keynes,956 Kinsman Junction,Houston,TX,77228
Regine Pinare,4571 Lerdahl Plaza,Newton,MA,02458
Vitoria Klimpt,33581 Welch Court,Riverside,CA,92519
Fields Nelson,47 Portage Lane,Jacksonville,FL,32220
Stern Mearns,7 Sherman Place,Seattle,WA,98133
Cordi Shercliff,2 Rockefeller Circle,Pasadena,CA,91125
Pace Bunyard,1 Dottie Court,Los Angeles,CA,90055
Elisabet Dilks,7260 Nancy Road,Los Angeles,CA,90189
Derwin Phizacklea,363 Milwaukee Pass,Charleston,WV,25356
Clarita Brixey,0920 Kingsford Alley,Knoxville,TN,37931
Binni Sultana,320 8th Parkway,Tyler,TX,75705
Liam De Bruyn,8 Northview Drive,Mount Vernon,NY,10557
Coralyn Messer,16 Katie Point,San Francisco,CA,94132
Helaina Shord,9321 Warbler Crossing,Memphis,TN,38197
Averell Gusney,317 Blue Bill Park Alley,Houston,TX,77288
Aurelea Rourke,255 Colorado Trail,Las Vegas,NV,89193
Stace Iapico,4 Chinook Hill,Detroit,MI,48242
Dyanne McEntee,52 Ryan Parkway,Kansas City,MO,64125
Nil Luckman,3443 Graedel Crossing,Columbus,OH,43240
Seward Bond,04700 Morrow Circle,Fairbanks,AK,99790
Meridel Avramow,3 Oneill Parkway,Lake Worth,FL,33462
Kassey Ewan,08 Farragut Hill,Washington,DC,20057
Forster Lyver,3 Swallow Avenue,Long Beach,CA,90840
Armin Plaster,35230 Glendale Drive,Austin,TX,78769
Gwen Dibley,9945 Rowland Alley,Kansas City,MO,64125
Alaric Brazel,878 Buell Lane,Wichita,KS,67230
Cassey Butland,5623 Gina Lane,Birmingham,AL,35210
Willabella Twiddell,4745 Myrtle Avenue,New Orleans,LA,70187
Jerald Jacquemard,345 Rutledge Avenue,Cape Coral,FL,33915
Janella Rikkard,178 Hazelcrest Junction,Schaumburg,IL,60193
Quintilla Bulger,539 Portage Point,Miami,FL,33169
Oberon Galero,11 Michigan Junction,Rockford,IL,61110
Rurik Golds,2 Merrick Junction,Stockton,CA,95219
Irv Skain,78180 Emmet Crossing,Cedar Rapids,IA,52405
Danny Reddish,64 Melrose Plaza,Las Vegas,NV,89145
Tristan Snibson,89 Mendota Terrace,Fort Wayne,IN,46814
Odelia Fricker,8817 Huxley Way,Philadelphia,PA,19093
Ibbie Sibthorp,249 Center Plaza,Minneapolis,MN,55428
Weylin Troillet,0 Birchwood Alley,Sacramento,CA,95813
Isiahi Kuhlen,5 Laurel Terrace,Salinas,CA,93907
Faina Tennock,2 Sloan Parkway,Herndon,VA,22070
Marilin McNicol,16967 Kings Circle,Hollywood,FL,33023
Waylin Chalfant,49119 Thompson Center,Cleveland,OH,44197
Keven Grierson,89836 Lotheville Plaza,Tyler,TX,75710
Flor Bilbery,285 Sachs Point,Jacksonville,FL,32204
Daisey Pllu,9 Lunder Place,Akron,OH,44321
Berny Pesticcio,413 Golden Leaf Drive,Little Rock,AR,72209
Bondy MacAlpin,6498 Declaration Pass,Albany,NY,12237
Payton Reveland,4 Superior Street,New York City,NY,10249
Theodora Lambirth,944 Fair Oaks Parkway,Jacksonville,FL,32259
Karlis Charlewood,458 Orin Street,Saint Louis,MO,63143
Sidoney Devonport,2910 Northport Hill,Albany,NY,12262
Ennis Fucher,837 Veith Crossing,South Lake Tahoe,CA,96154
Andriette Mound,94 Monterey Way,San Bernardino,CA,92410
Shaine Feighney,96 Del Sol Court,Texarkana,TX,75507
Tait Atmore,31 Manley Center,Oklahoma City,OK,73114
Meghan Dyment,07 Hudson Terrace,Houston,TX,77040
Rochester Childes,41 2nd Way,Davenport,IA,52809
Bethina Allward,52 Cordelia Terrace,Texarkana,TX,75507
Valerie Baumler,95152 Crest Line Plaza,Chicago,IL,60657
Portia McGilvra,4616 La Follette Junction,Boston,MA,02298
Sara-ann Waberer,134 Comanche Road,Orlando,FL,32885
Kimbell MacIlhagga,80 John Wall Court,Newton,MA,02458
Anetta Wrates,40 Bay Drive,Jacksonville,FL,32209
Ailene Thewles,9 Haas Plaza,Orlando,FL,32808
Neron Worsfold,9 Northfield Pass,Scranton,PA,18514
Anjela Beedell,836 Armistice Junction,San Bernardino,CA,92410
Jordain Kitching,6744 Cherokee Pass,Las Vegas,NV,89130
Luise Townsend,6101 7th Alley,Columbus,OH,43220
Rosa Harbor,8 Center Drive,Plano,TX,75074
Hettie Leete,1 Autumn Leaf Lane,Washington,DC,20268
Bianka Keynes,80 Fisk Drive,San Antonio,TX,78260
Zebadiah Sherston,8564 Mosinee Street,Providence,RI,02912
Ciel Lethby,2826 Lotheville Trail,Young America,MN,55564
Sileas Rothwell,05 Lighthouse Bay Parkway,Anderson,IN,46015
Gwenni Stitch,005 Shoshone Road,Seattle,WA,98185
Shalom Beevor,182 Westend Court,Richmond,VA,23272
Elsbeth Gligoraci,5099 Wayridge Terrace,Indianapolis,IN,46221
Izabel Laurentino,60261 Eagle Crest Road,Dallas,TX,75246
Rhodia Di Biagio,633 Knutson Center,Wilmington,DE,19897
Ulrica Yven,06 Crowley Park,Portsmouth,NH,03804
Benton Thoresbie,73 Anthes Circle,Boston,MA,02298
Arleyne Hollyman,446 Kings Court,Wichita Falls,TX,76310
Paulie Greg,612 Ronald Regan Avenue,High Point,NC,27264
Mildrid Arnaudon,3978 Mayfield Plaza,Baton Rouge,LA,70836
Salomo Aleavy,30642 Fulton Trail,Washington,DC,20456
Fremont Ast,0948 Everett Trail,Jacksonville,FL,32220
Uriah Lease,4 Sullivan Center,Dallas,TX,75387
Lilith Tamas,03507 Ridge Oak Hill,Roanoke,VA,24024
Court Huzzey,6 4th Alley,Houston,TX,77250
Griselda Divall,21 Prairieview Road,Atlanta,GA,31190
Barde Kubanek,74 Crest Line Center,Miami,FL,33175
Jorrie Frisdick,09 Rigney Plaza,Des Moines,IA,50330
Elita Dacre,39 Grasskamp Center,Texarkana,TX,75507
Ernestine Wearden,326 Northport Point,Louisville,KY,40225
Claudie Frazer,71653 Barnett Pass,Albany,NY,12205
Dru Foad,77 Scoville Plaza,Baltimore,MD,21216
Florentia Peddar,3216 Logan Avenue,Tuscaloosa,AL,35487
Clayson Turfus,65 Beilfuss Drive,Salt Lake City,UT,84135
Lea McShane,64 Ilene Lane,Fargo,ND,58106
Sergent Bathowe,41 Dayton Road,Greensboro,NC,27425
Moises Rankin,3 Hansons Drive,Buffalo,NY,14215
Beauregard Lanmeid,601 Valley Edge Pass,Washington,DC,20546
Gray Sooper,3104 Daystar Avenue,Chicago,IL,60681
Neel Morecomb,5 Maple Wood Street,Riverside,CA,92505
Petronia Malkin,160 Farwell Junction,Anchorage,AK,99522
Niels Seviour,7917 Dovetail Center,Seattle,WA,98185
Kip Sacks,058 Vidon Pass,Washington,DC,20599
Arleta Yepiskopov,196 Mayer Pass,Oxnard,CA,93034
Glennis Mease,792 Summer Ridge Road,Alpharetta,GA,30022
Candie Mantrup,08016 Melby Park,Sacramento,CA,94257
Madelon Ofer,0 Doe Crossing Park,Canton,OH,44705
Georgy Longforth,5 Fair Oaks Street,Fort Wayne,IN,46825
Wittie Gillean,7 Nancy Place,Paterson,NJ,07522
Even Pucknell,59451 Heffernan Avenue,San Jose,CA,95123
Theo Shower,9 Nevada Lane,Dallas,TX,75241
Cora Sulman,51 Duke Avenue,Alexandria,VA,22301
Ettie Gaitley,383 Saint Paul Pass,Seattle,WA,98104
Leupold Yandle,6 Dixon Crossing,New Orleans,LA,70149
Selena Noirel,3642 Dennis Point,Fort Wayne,IN,46852
Corrine McCarrell,32 Larry Center,Huntsville,TX,77343
Brand Heinsius,9 Raven Court,Pittsburgh,PA,15261
Kizzee Caren,5519 Mitchell Street,Greensboro,NC,27415
Jakob Dawkes,7143 Main Hill,Dallas,TX,75353
Reade Butlin,50 Shasta Crossing,Loretto,MN,55598
Hamlen Brewitt,84 Forest Trail,Charlotte,NC,28230
Janene McPhelimy,1 Glacier Hill Park,Minneapolis,MN,55446
Isidore Arman,81 Victoria Circle,Saint Paul,MN,55115
Celestyn Penberthy,35 Northridge Junction,Kansas City,MO,64149
Asia Ivanets,64038 Veith Point,Gatesville,TX,76598
Dorothea Hattoe,2 Waubesa Road,Carson City,NV,89706
Teressa Arnfield,99666 Red Cloud Park,Dayton,OH,45403
Sapphira Linskill,1 Golf Alley,Philadelphia,PA,19136
Aron Palomba,82 Dovetail Street,Richmond,VA,23272
Korey Warin,62 Pearson Avenue,Yonkers,NY,10705
Archibold Lambourne,85892 Golf View Plaza,Dallas,TX,75236
Francisco Trembath,70690 Knutson Court,Jacksonville,FL,32277
Ezmeralda Browncey,82136 Fair Oaks Place,Ridgely,MD,21684
Alphonso Longridge,8 Bluejay Hill,Raleigh,NC,27610
Yalonda Renforth,674 Ronald Regan Park,Dayton,OH,45440
Rogerio MacCart,286 Onsgard Crossing,Huntington,WV,25721
Violetta Lemm,34 Arizona Way,Glendale,AZ,85305
Neall Soughton,4 Service Trail,Columbus,OH,43210
Nissie Prendeville,0651 Dixon Plaza,Lees Summit,MO,64082
Parnell Eliff,065 Pine View Road,Los Angeles,CA,90060
Codie Flamank,1089 Muir Hill,Dallas,TX,75342
Farley Collet,622 High Crossing Junction,Atlanta,GA,30351
Hy Smallwood,11 Delaware Alley,Atlanta,GA,30323
Cathrine Cornau,92174 Summer Ridge Pass,Decatur,IL,62525
Alon Tyrer,34595 Kinsman Terrace,Jacksonville,FL,32204
Felicle Fidler,3456 Susan Point,Fresno,CA,93721
Marlo Langlands,45 Mayfield Center,Amarillo,TX,79165
Ody Tollit,24 Tomscot Alley,Washington,DC,20580
Joyce Coger,4 Monument Center,Mobile,AL,36610
Kessiah Franzke,41932 Onsgard Plaza,Norman,OK,73071
Wolfgang Guille,7 Fair Oaks Crossing,Columbus,GA,31914
Nataniel Hiseman,543 Aberg Point,San Mateo,CA,94405
Pembroke Carney,34928 Rieder Hill,Salt Lake City,UT,84125
Wilton Brayley,129 Hermina Drive,San Jose,CA,95133
Nedi Ticksall,6335 Butterfield Way,Akron,OH,44321
Martino M'Quhan,3 Manufacturers Way,Charlotte,NC,28215
Collete Owain,62 Thierer Terrace,Pueblo,CO,81005
Carney Rankin,4 Russell Pass,Boston,MA,02298
Alphonse Harle,0639 Elmside Plaza,Springfield,OH,45505
Lockwood Caddan,73775 Welch Street,Syracuse,NY,13224
Eugenie Iacobo,717 Prentice Pass,Richmond,VA,23213
Edyth Ruane,3005 Arapahoe Trail,Fort Worth,TX,76115
Delilah Tibbles,5097 Packers Plaza,Colorado Springs,CO,80905
Gabriel Caddell,6717 East Center,Anchorage,AK,99512
Deerdre Culleford,625 Randy Road,Naples,FL,33961
Clem Stroband,511 Menomonie Circle,Dayton,OH,45440
Marcellus Thornton-Dewhirst,9 Monterey Plaza,New York City,NY,10184
Lanna Gorman,5 Michigan Crossing,Gatesville,TX,76598
Lara Titt,1 North Pass,Allentown,PA,18105
Yelena Augustus,8443 Westerfield Drive,Houston,TX,77260
Bernardine Reek,894 South Way,Charlotte,NC,28299
Kareem Pautard,31212 Cardinal Alley,Albuquerque,NM,87121
Sybyl Heine,531 Browning Plaza,Scottsdale,AZ,85255
Skipp Spencelayh,1666 Bobwhite Circle,Springfield,MA,01114
Michelle Dillway,9190 Atwood Pass,Anchorage,AK,99512
Rianon Speere,128 Drewry Avenue,New Orleans,LA,70129
Adolph Loughren,80 Mendota Court,New Haven,CT,06533
Dwayne Smout,09865 Johnson Street,Kansas City,MO,64130
Dido Virr,89546 Elgar Crossing,Miami,FL,33245
Edith Denkel,85188 Ramsey Center,Bradenton,FL,34205
Urban Hackwell,6 Merrick Park,Raleigh,NC,27626
Ginnie McGinly,5813 International Crossing,Troy,MI,48098
Anne-marie Thayre,2366 Doe Crossing Terrace,Lansing,MI,48901
Arlen Kett,829 Scott Street,New York City,NY,10184
Penny Staniford,7 Charing Cross Avenue,Alexandria,LA,71307
Elana Hagstone,4774 Banding Alley,West Palm Beach,FL,33411
Tessy Boshers,1290 Shelley Alley,Atlanta,GA,30340
Gabriella Linzee,0689 Moose Center,Kansas City,KS,66112
Winny Place,39628 Namekagon Alley,Los Angeles,CA,90035
Nickolaus Gethins,29917 Jay Plaza,Baton Rouge,LA,70805
Rona Gong,53316 Mcbride Crossing,Myrtle Beach,SC,29579
Shay Temple,79 Alpine Center,Beaverton,OR,97075
Astrid Tither,7589 Dwight Parkway,New York City,NY,10014
Maryanne Matthews,8 Vermont Center,Baltimore,MD,21275
Savina Pittaway,0 Crowley Road,Pasadena,CA,91117
Lillis Quilter,11 Debra Place,Memphis,TN,38136
Karine Frankham,2 Express Lane,New York City,NY,10270
Kiah Wittke,13459 Roxbury Way,Hartford,CT,06183
Andrew Romanin,22 Manley Alley,Boston,MA,02124
Sibyl Grigoryov,53767 Stone Corner Lane,San Francisco,CA,94154
Grange Diperaus,53 Dayton Avenue,Huntsville,AL,35805
Lenka Lister,32844 Armistice Plaza,Gulfport,MS,39505
Bambie Piddle,36379 Canary Center,Hyattsville,MD,20784
Gretchen Goose,54 Fulton Plaza,Louisville,KY,40266
Brew Bolmann,914 Debra Way,Jacksonville,FL,32255
Shandra Bourke,2 Talisman Crossing,Washington,DC,20503
Mable Steuart,0 Stephen Avenue,Washington,DC,20520
Blair Gunningham,16230 Autumn Leaf Point,Appleton,WI,54915
Nicoline McCafferty,82754 7th Circle,Corpus Christi,TX,78405
Tobin Adshead,26 Butterfield Center,Denver,CO,80235
Norene Raddan,531 Oak Valley Plaza,Roanoke,VA,24029
Kasper Algar,71797 Cambridge Plaza,Utica,NY,13505
Ricard Rounding,075 Rowland Pass,Silver Spring,MD,20904
Darlene Swindin,02256 Lotheville Drive,Columbia,MO,65218
Jeromy Dransfield,429 Oriole Crossing,Saint Louis,MO,63167
Elle Grimditch,11 Anhalt Pass,Springfield,IL,62723
Rayna Brookesbie,27 Stoughton Lane,Chandler,AZ,85246
Sallee Treweke,747 Stephen Plaza,Charlotte,NC,28235
Kienan Habershon,6 Surrey Terrace,Delray Beach,FL,33448
Sunny Bernhard,7 Beilfuss Alley,Houston,TX,77288
Trista Diego,8602 Dahle Lane,Atlanta,GA,30380
Louisette MacScherie,35290 Corry Trail,Tacoma,WA,98442
Willy Finlry,1064 Pierstorff Lane,Peoria,IL,61656
Jelene Gagie,812 Glendale Court,Saint Cloud,MN,56398
Lucine Jeaffreson,5568 Dapin Center,Pocatello,ID,83206
Bruce Michelle,9 Portage Street,Canton,OH,44760
Zack Layborn,913 Ohio Avenue,North Las Vegas,NV,89036
Therine Novakovic,9 Nancy Junction,Tucson,AZ,85748
Annadiana Simonato,74 Daystar Center,Salt Lake City,UT,84140
Tailor Rudland,511 Banding Way,Houston,TX,77045
Elvina Badrock,6383 Sunbrook Pass,Miami,FL,33153
Noelyn McGarry,60251 Southridge Parkway,Omaha,NE,68144
Diego Boothman,30 Katie Hill,Lafayette,IN,47905
Ailsun Truelock,055 Dunning Road,Sacramento,CA,94257
Mercie Francello,5863 Cardinal Court,Rochester,NY,14604
Robin Haresnaip,3140 Blaine Junction,New Orleans,LA,70187
Stevana Simnel,34 Charing Cross Hill,Baton Rouge,LA,70826
Fionna Giacovelli,1717 Sherman Drive,Hartford,CT,06120
Joel Rahl,9 Kings Lane,Baton Rouge,LA,70810
Jackson Tankus,51 Union Circle,Panama City,FL,32405
Darryl Demkowicz,42 Melby Drive,Manassas,VA,22111
Joseph Davidi,13 Ramsey Point,Bethesda,MD,20892
Erna Dunstone,7526 Delaware Park,Seattle,WA,98166
Raimondo Kenneford,58 Welch Street,Brockton,MA,02305
Zaneta Corderoy,91 Jackson Crossing,Little Rock,AR,72231
Rosie Barden,544 Calypso Place,Lexington,KY,40505
Emmie Tilford,11777 Summer Ridge Hill,Arlington,VA,22217
Bennie Monkhouse,8579 American Way,Boulder,CO,80310
Lurleen Toffts,2766 Bonner Way,Duluth,GA,30096
Lotti Greatorex,3573 Macpherson Parkway,Vancouver,WA,98687
Maitilde Pennycook,5054 American Court,Washington,DC,20503
Jaine Bernt,2787 Swallow Circle,Salt Lake City,UT,84110
Dian Cocke,72144 Nelson Alley,Columbus,OH,43226
Faythe Akid,46 Dwight Way,Montgomery,AL,36195
Gerome Jouaneton,96885 Dawn Alley,Saint Petersburg,FL,33705
Rossie Illidge,72329 Village Circle,Waterbury,CT,06726
Fanya Dobeson,83 Pearson Road,Lehigh Acres,FL,33972
Randy Greening,4 Rusk Point,Pittsburgh,PA,15220
Gordon Caudray,98 Sutherland Place,Chicago,IL,60681
Laney Melliard,1194 Colorado Point,Shawnee Mission,KS,66225
Noel Buckham,648 Hauk Circle,San Francisco,CA,94116
Joey Cantwell,563 Elka Trail,Temple,TX,76505
Devlen Topham,84351 Monument Park,Topeka,KS,66699
Camel Janecek,5 Anzinger Trail,Kansas City,MO,64193
Erek Teal,769 Milwaukee Plaza,San Bernardino,CA,92410
Rachelle Yong,734 American Ash Crossing,Lansing,MI,48930
Edmund Holdin,2016 Anhalt Drive,Minneapolis,MN,55417
Glory Kincla,671 Sullivan Hill,Colorado Springs,CO,80945
Egan Pietrusiak,50047 Haas Terrace,Phoenix,AZ,85035
Lucas Spavins,765 Summit Way,Anchorage,AK,99522
Whittaker Sherwell,3885 Thierer Alley,New Orleans,LA,70154
Rani Snaddin,87350 Pleasure Park,Merrifield,VA,22119
Ulysses Mapp,248 Washington Junction,Lubbock,TX,79410
Agustin Giovannelli,0 Meadow Valley Way,Louisville,KY,40280
Dorie Seabert,2 Armistice Park,El Paso,TX,88563
Jesselyn Richmont,96768 Kinsman Avenue,Largo,FL,33777
Damiano Cazin,81 Kim Pass,Sacramento,CA,94257
Rustie Gower,81877 Ilene Avenue,Topeka,KS,66642
Gertrud Castellaccio,96997 Linden Crossing,Van Nuys,CA,91406
Jaime Jordin,89291 Garrison Terrace,Fresno,CA,93762
Eadmund Fashion,47 Blue Bill Park Trail,Dayton,OH,45440
Town McGairl,65 Northport Place,Mobile,AL,36616
Cymbre Pinchbeck,9 Heath Circle,Denver,CO,80228
Reggi Bravey,45 Lawn Place,Saint Louis,MO,63143
Kingsley Saiger,22488 Wayridge Pass,New Haven,CT,06505
Livvyy Kington,99 Aberg Place,Durham,NC,27705
Tedra Pally,915 Corben Park,Phoenix,AZ,85010
Shani Poor,6 Dixon Junction,New York City,NY,10131
Webster Mabbett,2678 Norway Maple Center,Montgomery,AL,36109
Rosabella Shardlow,6 Barnett Parkway,Tyler,TX,75799
Prent Glassard,4 Tennessee Alley,Cincinnati,OH,45228
Angie Szreter,019 Mosinee Avenue,Oakland,CA,94622
Blaine Rowntree,368 Logan Avenue,Shreveport,LA,71161
Faunie Rappaport,25204 Arizona Trail,San Rafael,CA,94913
Harrie Lepoidevin,184 Mitchell Court,Denver,CO,80243
Dillon Assandri,82 Talisman Terrace,Midland,TX,79710
Rori Rubinsohn,1 Summit Place,Lexington,KY,40524
Tuesday Pulman,0462 Springs Avenue,El Paso,TX,88525
Clari Tort,0 Pankratz Alley,Youngstown,OH,44505
Heda Bulward,1 Blaine Lane,Birmingham,AL,35236
Allin Boniface,91108 Kinsman Alley,Appleton,WI,54915
Celle Biasioni,35 Southridge Avenue,Corpus Christi,TX,78465
Tait Rolls,4 Meadow Ridge Place,Appleton,WI,54915
Portia Truesdale,537 Westerfield Plaza,Monticello,MN,55590
Audrey Shoutt,94523 South Lane,Alexandria,VA,22313
Phillis Maplesden,4874 Swallow Parkway,Farmington,MI,48335
Dwayne Haspineall,0804 Fair Oaks Terrace,Brooklyn,NY,11225
Dinnie Casillas,1365 Declaration Way,Syracuse,NY,13210
Ara MacGillavery,5993 Merchant Plaza,Huntsville,AL,35895
Patrice Glassman,76683 Miller Way,Detroit,MI,48224
Birdie Bartolomeo,241 Lien Park,Dallas,TX,75287
Jackelyn Kelle,845 Westerfield Court,Pocatello,ID,83206
Nate Tirrey,0741 Raven Street,Young America,MN,55551
Willabella Burghall,7 Comanche Circle,Olympia,WA,98516
Colver Picken,010 Old Gate Street,Columbus,OH,43210
Jada Helin,7 Oak Hill,Albany,NY,12255
Geoffrey Dredge,30543 Meadow Ridge Lane,Newton,MA,02162
Hobie Dawtrey,72 Kings Road,Albany,NY,12237
Karol Lymbourne,7 Spohn Alley,Daytona Beach,FL,32128
Catlaina Drynan,1 Claremont Drive,Washington,DC,20057
Grantley Kittiman,84747 Browning Way,Phoenix,AZ,85077
Elana Fillary,59 Cascade Hill,Sarasota,FL,34238
Paton McCathy,7 Di Loreto Court,Birmingham,AL,35220
Barde Dabel,35 Eliot Park,Washington,DC,20205
Hervey Worvell,794 Vera Alley,Tucson,AZ,85732
Beauregard Russon,842 Truax Hill,San Francisco,CA,94126
Bobbee Scamal,4203 Boyd Road,Seattle,WA,98121
Opalina Gorioli,3 Lake View Junction,Sioux City,IA,51110
Zsazsa Guidetti,9026 Buena Vista Junction,Scranton,PA,18505
Kearney Tremaine,57 Village Green Park,Huntsville,AL,35815
Bennie Yacobsohn,7 Browning Road,Worcester,MA,01610
Nat Tzar,9998 Corben Terrace,Shawnee Mission,KS,66286
Milissent Loveless,3265 Independence Plaza,San Diego,CA,92170
Grayce Heinish,8284 Waxwing Way,Birmingham,AL,35290
Janean Castleton,16793 Bartelt Alley,Albany,NY,12247
Elaine Sharrocks,32 Kinsman Center,Harrisburg,PA,17121
Maurice Hunstone,593 Buhler Pass,Baltimore,MD,21265
Adelle Billitteri,09 Manufacturers Park,Oakland,CA,94622
Leonore Shone,40 Corry Plaza,Raleigh,NC,27635
Cornell Baccus,8 Myrtle Crossing,Washington,DC,20409
Kass Quinnet,251 Michigan Hill,Tuscaloosa,AL,35405
Catie Phettiplace,595 Eastwood Street,Canton,OH,44720
Colet Chitty,7 Northridge Plaza,Topeka,KS,66611
Deni Simecek,68815 Huxley Plaza,Seattle,WA,98104
Wernher Chaim,13811 Elka Terrace,Conroe,TX,77305
Dore Torre,8844 Colorado Lane,Baltimore,MD,21229
Blithe Smaile,0074 Hermina Way,Kansas City,MO,64193
Inesita Dargue,32 Luster Parkway,Houston,TX,77234
Marys McDaid,37715 Evergreen Street,Green Bay,WI,54305
Skipp Gaythwaite,8952 Mcguire Terrace,Washington,DC,20540
Alejandro Milsap,23572 Arapahoe Parkway,Montgomery,AL,36177
Puff Sambells,920 David Street,Santa Barbara,CA,93150
Hayes Gerraty,6170 Stoughton Circle,Baton Rouge,LA,70836
Ruthy Place,07305 Glacier Hill Lane,Hialeah,FL,33013
Salomon Fanning,0768 Carberry Alley,Columbus,OH,43240
Thebault Raeburn,22 Center Road,White Plains,NY,10633
Carmelle Skillings,1680 Portage Park,New Hyde Park,NY,11044
Tades Harvard,2 Sage Drive,Cincinnati,OH,45254
Karisa Ferraron,8696 Moland Lane,Huntington,WV,25770
Griselda Goundry,6297 Schlimgen Hill,Bonita Springs,FL,34135
Conchita Warrior,97 Melody Street,Grand Rapids,MI,49510
Templeton Duffell,69 Chinook Alley,Scranton,PA,18514
Mavis Klamman,92 West Point,Montgomery,AL,36109
Yettie Bointon,64983 Green Terrace,Migrate,KY,41905
Devinne Wainman,93455 Manley Trail,Milwaukee,WI,53225
Georgie Stubbington,67 Blackbird Alley,Laurel,MD,20709
Stormie Reynault,70593 Goodland Alley,Houston,TX,77095
Madelon Sowte,8 Crownhardt Crossing,Harrisburg,PA,17110
Hendrika Oakhill,7 Steensland Center,Lakeland,FL,33811
Abel Beckley,4 Claremont Circle,Houston,TX,77060
Sigismundo Goseling,83989 Roxbury Terrace,Melbourne,FL,32919
Breanne Godrich,089 Ludington Terrace,Bradenton,FL,34282
Bentlee Gravenall,6 Mayfield Road,Marietta,GA,30066
Kaylee Gajownik,75 Little Fleur Lane,Northridge,CA,91328
Rad Winley,1 Oriole Circle,Syracuse,NY,13251
Chastity Roony,43 Carberry Junction,Monticello,MN,55565
Hermon Klulisek,326 Macpherson Drive,Ocala,FL,34479
Yard Hallad,457 Judy Plaza,Sacramento,CA,95818
Marcile De L'Isle,43 Moose Pass,Miami,FL,33196
Lorita Cordeiro,317 Victoria Terrace,Washington,DC,20210
Dewain Underdown,36 Birchwood Place,San Diego,CA,92191
Kelcie Woolvin,45351 Rowland Hill,Buffalo,NY,14210
Lamond Moyers,80 Anthes Court,Clearwater,FL,34620
Banky Fergie,972 Service Road,Montgomery,AL,36195
Alissa Durram,2720 Messerschmidt Place,Nashville,TN,37240
Layton Gawler,6 Farwell Pass,Loretto,MN,55598
Rickard Antonoyev,42 Packers Alley,Oakland,CA,94616
Virgie Yeliashev,777 Northland Hill,Washington,DC,20540
Randee McShirie,92 Longview Road,New Orleans,LA,70183
Mufinella Alessandretti,636 Swallow Circle,West Palm Beach,FL,33411
Christophe Copper,19 Hayes Parkway,Fresno,CA,93778
Meryl Marmion,62 Oak Pass,Olympia,WA,98506
Damaris Gumbley,7 Oak Court,Oklahoma City,OK,73119
Brena Randell,9590 Jackson Center,Tallahassee,FL,32314
Cecilius Grastye,8847 Debra Crossing,Miami,FL,33185
Yasmin Wildor,1 Crest Line Terrace,Tacoma,WA,98464
Jaimie Jackett,0806 Arapahoe Way,El Paso,TX,79977
Dani Obeney,125 Iowa Street,Washington,DC,20580
Nelia Chant,54 Barnett Crossing,Anniston,AL,36205
Van Liddington,6869 Shoshone Road,North Little Rock,AR,72118
Levi Thornewell,57570 Nova Alley,Milwaukee,WI,53205
Ferdinande Turfes,615 Eastwood Drive,Minneapolis,MN,55441
Patrice Goodred,751 Truax Junction,Seattle,WA,98166
Mommy Paolo,5648 Menomonie Circle,Houston,TX,77050
Daile Martino,37163 Gulseth Trail,Juneau,AK,99812
Carlye Sandland,7847 Evergreen Trail,Brooklyn,NY,11241
Kelsy Fitchett,72 Prairieview Trail,Albuquerque,NM,87110
Kit Corradengo,662 Loomis Road,Pompano Beach,FL,33075
Rheba Scarlin,740 Westport Circle,New York City,NY,10184
Euphemia Scrannage,2 Monica Lane,Baton Rouge,LA,70805
Marjy Robardet,6877 Heath Trail,Albany,NY,12205
Calhoun Feifer,21934 Maywood Pass,Santa Monica,CA,90410
Roxana Rentoll,67664 Alpine Place,Reading,PA,19605
Wileen Karolewski,08614 Schlimgen Junction,Tacoma,WA,98405
Ashlee Waldren,5 Westerfield Way,Grand Rapids,MI,49544
Stephani Jennins,0 Del Mar Park,Pasadena,TX,77505
Spenser MacKnight,68019 3rd Terrace,Houston,TX,77281
Konstantin Innot,8070 Charing Cross Lane,Brooklyn,NY,11210
Aurilia Imlin,74150 American Center,Terre Haute,IN,47812
Wandie Muzzini,85410 Kensington Court,Phoenix,AZ,85053
Leonanie Leavens,278 Prairie Rose Junction,Springfield,IL,62776
Laurice Cockerell,171 Kinsman Place,Birmingham,AL,35279
Eleanor Shackleford,4575 Porter Junction,Sacramento,CA,94286
Sallyann Lanfere,0 Manufacturers Plaza,Boynton Beach,FL,33436
Averill Madders,7 Almo Drive,Indianapolis,IN,46231
Ewart Ormistone,847 Fieldstone Road,New York City,NY,10270
Cletus Jime,55986 Straubel Place,Charlotte,NC,28235
Gwyn Alans,36191 Jackson Junction,Dallas,TX,75323
Marcia Jonczyk,2 Red Cloud Way,New Orleans,LA,70165
Inessa Northrop,3168 Forest Street,Saint Paul,MN,55127
Abran Nickolls,0 Forest Run Plaza,Tucson,AZ,85720
Carmelle Cupper,480 Riverside Point,Crawfordsville,IN,47937
Merwin Pourvoieur,299 John Wall Parkway,Midland,TX,79705
Elysia Bushrod,206 Monument Circle,Portland,OR,97240
Blondelle Gostick,1 3rd Park,Beaverton,OR,97075
Cart MacKeller,7317 Cordelia Circle,Baton Rouge,LA,70810
Ibbie Isaaksohn,036 Merchant Parkway,Macon,GA,31296
Casandra Baus,199 Northridge Trail,Warren,MI,48092
Gerhardt Burwell,40 Packers Crossing,Santa Ana,CA,92705
Fraze MacCartney,7180 Dunning Court,Lubbock,TX,79491
Marys Scotti,83 Hoard Road,San Jose,CA,95118
Terry Sorsby,1 Fair Oaks Road,Daytona Beach,FL,32123
Ruthe Hatchard,6487 Jenifer Circle,San Jose,CA,95173
Babbie Boulds,3583 Bay Park,Rochester,NY,14683
Cathrine Parminter,7 Caliangt Drive,Atlanta,GA,31132
Mariellen Breinlein,57182 Northridge Way,Homestead,FL,33034
Valdemar Kalinowsky,1 Grayhawk Avenue,Raleigh,NC,27605
Zacharia Cathesyed,19 Barnett Trail,Santa Monica,CA,90410
Gusta Ebbin,65989 Sutherland Plaza,Louisville,KY,40205
Alessandro Beagley,3991 2nd Alley,Jamaica,NY,11447
Kennie Folkerd,6125 Northview Point,Flushing,NY,11355
Davon Landre,69 Northfield Drive,Glendale,CA,91205
Cheryl Spurr,385 Spenser Hill,Dallas,TX,75367
Eyde Bolden,3298 Ludington Junction,Richmond,VA,23213
Miltie Baddeley,6 Buell Place,El Paso,TX,88535
Bren Pentecost,546 Dovetail Avenue,Washington,DC,20244
Lindon Scolland,80 Bunker Hill Crossing,Charleston,WV,25356
Gladi Babalola,4 Hallows Lane,Tampa,FL,33694
Elita Blacklidge,91524 Dayton Pass,Atlanta,GA,30358
Coretta Ghidetti,8 Gateway Court,Pompano Beach,FL,33075
Terence Freschi,76163 School Trail,Las Vegas,NV,89155
Archibold Looby,5 Hazelcrest Way,Charlotte,NC,28299
Randy Mattheissen,5 Nevada Street,Bellevue,WA,98008
Waylan Frantz,52 Morrow Trail,Pittsburgh,PA,15279
Milton Jamary,5375 Center Circle,Salt Lake City,UT,84189
Mead Duckerin,83 Browning Avenue,Pensacola,FL,32526
Vin McKernan,1654 Veith Terrace,Miami,FL,33196
Kaia Petersen,76851 Manley Road,Colorado Springs,CO,80940
Osmund Orrocks,10 Northview Pass,Las Vegas,NV,89140
Conrado Lynagh,6 Thompson Parkway,Pasadena,CA,91117
Benny Asch,7419 Gerald Court,Charlotte,NC,28284
Waverly Brittoner,94890 Steensland Pass,Pittsburgh,PA,15230
Corabella Brophy,95040 4th Junction,Rochester,NY,14614
Elwira Deesly,6 Mockingbird Way,Dallas,TX,75358
Xavier Duckit,07643 Atwood Hill,Rochester,NY,14639
Andonis Astin,7818 Mandrake Lane,Tucson,AZ,85732
Judah Menure,4 Forest Run Plaza,Newport News,VA,23612
Delcine Fowley,60 Eastlawn Terrace,Tulsa,OK,74126
Ruby Stothard,4369 Twin Pines Lane,Saint Paul,MN,55114
Sascha Stoacley,5672 Maryland Hill,Santa Clara,CA,95054
Cheri Bradick,90 Westerfield Point,Tulsa,OK,74170
Thekla Hischke,96800 Trailsway Trail,Virginia Beach,VA,23471
Terza Weston,66 Forest Center,Lubbock,TX,79491
Chicky Cardoso,508 Scott Place,Bradenton,FL,34210
Zabrina Bardwell,0995 Park Meadow Park,Inglewood,CA,90305
Inessa Twiddle,1965 Manitowish Place,Richmond,VA,23237
Bradney Bergstram,04 Lunder Court,Erie,PA,16510
Denver Fyfield,104 Fremont Street,Champaign,IL,61825
Steffie Alpine,3506 Summit Trail,Houston,TX,77010
Muffin Olwen,0541 Sutteridge Center,Detroit,MI,48267
Enrico Baike,69631 Continental Way,Jacksonville,FL,32236
Armin Pindred,273 Delaware Crossing,San Francisco,CA,94154
Odetta Duly,69 Shopko Street,Seattle,WA,98185
Karoly McAlester,1 Anzinger Parkway,Denton,TX,76205
Mignonne Walstow,7 Golf View Point,El Paso,TX,79940
Abelard Savell,26037 Calypso Plaza,Albany,NY,12222
Ardra Battaille,9 Northfield Hill,Indianapolis,IN,46221
Yvon Clifforth,60520 Sycamore Trail,Salt Lake City,UT,84130
Ramonda Leftwich,96 Meadow Valley Drive,Fayetteville,NC,28314
Ashlan Hamelyn,2 Steensland Point,Denton,TX,76210
Elberta Deere,9785 Anhalt Place,Fort Worth,TX,76198
Reeta Cuttings,91976 Derek Circle,Oklahoma City,OK,73119
Trixy Aitken,223 Anthes Parkway,Tulsa,OK,74103
Malina Dignan,50 Transport Plaza,Norfolk,VA,23509
Thomasa Picton,2863 Cordelia Pass,San Francisco,CA,94137
Trstram Louw,09 Merry Plaza,Long Beach,CA,90805
Cecil MacGregor,29522 Sunbrook Terrace,Tucson,AZ,85720
Fulvia Penelli,74 Gulseth Pass,Brooklyn,NY,11210
Buckie Bruckshaw,89176 Green Ridge Point,Washington,DC,20551
Ninon Swains,643 Carey Parkway,San Antonio,TX,78215
Farrel Winfred,6093 Sommers Hill,El Paso,TX,79940
Leodora Inott,7 Holy Cross Place,Fayetteville,NC,28314
Berta McCrorie,6872 Twin Pines Alley,Washington,DC,56944
Morty Tokley,70542 Becker Trail,Pasadena,CA,91125
Ertha Gribble,43954 Quincy Crossing,Washington,DC,20036
Allistir Espina,765 Pankratz Alley,Oklahoma City,OK,73114
Eleni Piechnik,33257 Cardinal Way,Bethlehem,PA,18018
Fallon Boldra,0783 Farragut Lane,Canton,OH,44760
Cobbie Jzak,48048 Pleasure Road,Naples,FL,34102
Aila Penburton,21673 Knutson Parkway,Chicago,IL,60609
Westley Younie,9 Oneill Park,Austin,TX,78744
Jens Gerger,22074 Warbler Park,Portland,OR,97216
Christabella Christmas,36947 International Terrace,Fort Worth,TX,76134
Bary Marl,68 Delaware Trail,Tacoma,WA,98481
Pamela Blondin,07 Bunker Hill Avenue,Spring Hill,FL,34611
Talbot Schoffler,2 Drewry Pass,Miami,FL,33283
Christan Croser,19 Delaware Road,Fort Wayne,IN,46857
Guthry Heeps,989 Eliot Drive,Salem,OR,97306
Kylynn Grotty,511 Grim Court,Homestead,FL,33034
Chris Demangeon,95 Crescent Oaks Road,San Antonio,TX,78285
Carr Eisig,5 Superior Plaza,Pittsburgh,PA,15205
Laurianne Gittoes,390 Dixon Plaza,Baltimore,MD,21282
Jammal Antonchik,60 Northland Road,Simi Valley,CA,93094
Sven Gilli,67 Ridgeview Place,Washington,DC,20099
Patrica Haresign,0099 4th Park,Louisville,KY,40250
De witt Bartkiewicz,32458 Nevada Hill,New York City,NY,10060
Garner Giannini,6 Hazelcrest Center,Fresno,CA,93794
Joyann Wilkennson,1 Continental Trail,Cincinnati,OH,45249
Jacquenette Flatte,75914 Carioca Alley,Rochester,NY,14646
Donia Stears,8866 Meadow Valley Crossing,Lafayette,LA,70593
Brant Double,1 Comanche Terrace,Greensboro,NC,27409
Kevina Hedden,8424 Dovetail Road,Worcester,MA,01610
Meggi Caurah,65 Raven Parkway,Ann Arbor,MI,48107
Anatollo Birtwisle,0533 Melby Trail,Chicago,IL,60663
Abra McCullagh,75 Debs Street,Phoenix,AZ,85083
Allys Ivshin,8554 Gale Circle,Springfield,MO,65898
Wylma Mantripp,76248 Bayside Way,Dayton,OH,45403
Fay Hambling,82537 Gateway Parkway,Denton,TX,76205
Andy Kenney,2607 Sycamore Street,Odessa,TX,79769
Darrick Darrach,1219 Gale Circle,Austin,TX,78721
Quintilla Sayer,83 Longview Hill,Salem,OR,97306
Bordie Staunton,2 Clyde Gallagher Trail,Austin,TX,78710
Dill Hebble,72 Vidon Court,Des Moines,IA,50369
Aviva Meininking,48224 Porter Alley,Morgantown,WV,26505
Merrilee Kleinberer,57 School Junction,Fort Lauderdale,FL,33310
Phineas Wheal,5707 Pankratz Parkway,San Jose,CA,95123
Josephine Crowden,62005 Killdeer Alley,Minneapolis,MN,55448
Morie Harefoot,5 Oxford Avenue,Zephyrhills,FL,33543
Willabella Spikeings,6069 Aberg Road,Brooklyn,NY,11247
Hillier Llewellen,9597 American Terrace,Fresno,CA,93750
Betty Pashby,9 Dovetail Junction,Peoria,IL,61656
Jaime Bomb,976 Northfield Crossing,Reston,VA,22096
Andrei McEntegart,8443 Lunder Court,Huntsville,TX,77343
Ernestus Forsard,6083 Miller Road,Port Saint Lucie,FL,34985
Andi Fellman,86 Evergreen Terrace,Northridge,CA,91328
Cherish Poston,0518 Service Road,Vienna,VA,22184
Vinny Yesichev,091 Springs Pass,Clearwater,FL,34629
Oswell Coltart,4 Bobwhite Lane,Phoenix,AZ,85062
Susannah Sherrell,6 Ridgeway Street,New Orleans,LA,70160
Heath Mew,933 Hanover Terrace,Oklahoma City,OK,73142
Eddy Dessant,1254 Sommers Junction,Battle Creek,MI,49018
Georgianna Ickov,513 Clyde Gallagher Crossing,Boca Raton,FL,33499
Steve McGrail,84 North Junction,Erie,PA,16534
Richie Ballingal,4 Donald Place,Saint Louis,MO,63131
Alicia Morshead,8 Redwing Terrace,Raleigh,NC,27605
Rubetta Malley,3114 Green Ridge Court,Nashville,TN,37235
Berry Brockbank,663 Nevada Pass,Richmond,VA,23293
Batholomew Godwin,220 Messerschmidt Pass,Petaluma,CA,94975
Aleece Klementz,74744 Cherokee Lane,Jefferson City,MO,65105
Herminia Ivanisov,95206 Elka Plaza,Fort Wayne,IN,46814
Matelda Thackston,8037 Moland Way,Peoria,IL,61629
Sarajane Giacobbo,2758 Eagle Crest Place,San Bernardino,CA,92410
Maribel Fritschel,4 Porter Hill,Jamaica,NY,11499
Herculie Heakey,0 West Hill,Springfield,OH,45505
Rogers Listone,0 Clemons Avenue,Dallas,TX,75323
Lea Daly,3850 Fallview Street,San Diego,CA,92132
Gar Papierz,5 Waubesa Road,Cedar Rapids,IA,52410
Denna Petrulis,7568 Del Sol Court,Canton,OH,44705
Gerek Dugget,36165 Reindahl Plaza,Greensboro,NC,27425
Baillie Bootton,160 Bluejay Junction,Pittsburgh,PA,15225
Nicki Philimore,3316 Porter Alley,Herndon,VA,22070
Adolf Klimke,80127 Towne Hill,Jackson,MS,39216
Rosabel Feaveryear,4 Graceland Point,Minneapolis,MN,55417
Kleon Ricart,1134 Columbus Road,Atlanta,GA,30323
Harriette Hazelgreave,344 Bowman Street,Des Moines,IA,50305
Porter Scholey,15325 Paget Avenue,Brooklyn,NY,11210
Zia Northill,55816 Arkansas Plaza,Huntsville,TX,77343
Darelle Warsap,0 Cascade Way,Miami,FL,33129
Gardiner Kindon,2623 Express Avenue,Fargo,ND,58106
Wadsworth Ingerson,734 Ludington Road,Monroe,LA,71208
Cleveland Giamuzzo,1438 Maple Court,Utica,NY,13505
Cindra Antalffy,93141 Talisman Crossing,Tucson,AZ,85705
Elvira Oppy,383 Southridge Street,Birmingham,AL,35285
Dehlia Wraighte,5820 1st Pass,Sioux Falls,SD,57198
Patience Ickowics,8192 Mitchell Lane,Wilkes Barre,PA,18763
Rosemaria Boynton,0126 High Crossing Circle,Hartford,CT,06183
Bran Cordeau,5729 Village Green Pass,Huntington,WV,25709
Padget Legendre,63 Ramsey Circle,San Antonio,TX,78240
Easter Godsil,7257 Hagan Parkway,Waterbury,CT,06705
Welbie Enric,8610 Green Ridge Trail,Raleigh,NC,27605
Daveen Falconbridge,26 Heath Hill,Atlanta,GA,30380
Philis Lumly,95673 Calypso Terrace,San Francisco,CA,94137
Corey McKerlie,9 Welch Court,Portland,OR,97206
Leonora Colleymore,5 New Castle Drive,Fort Wayne,IN,46852
Norri Westerman,220 Forest Crossing,San Francisco,CA,94169
Karrie Camamill,4 Monterey Way,Corpus Christi,TX,78475
Bald Maude,43 Spaight Street,Springfield,IL,62776
Sheff Spillard,11 Ridgeway Junction,Sioux Falls,SD,57105
Cassi Della,30 Lukken Park,Nashville,TN,37228
Alexandrina Elen,2102 Fuller Circle,Washington,DC,20036
Anna-maria Prozillo,59639 Derek Plaza,Austin,TX,78783
Alta Schruyer,87 Service Circle,Indianapolis,IN,46231
Margie Wildin,97954 Buell Plaza,Harrisburg,PA,17126
Beniamino Dmytryk,92794 Golden Leaf Alley,Miami,FL,33124
Hedwiga Extil,45 Miller Court,Erie,PA,16550
Chrysler Feige,4 Portage Court,Duluth,MN,55805
Tiphany Skellion,8760 Oakridge Street,Boston,MA,02119
Kori Largan,225 Leroy Street,Miami,FL,33134
Barth Shepheard,23307 Sunbrook Pass,Charleston,SC,29411
Hamnet Chewter,5 Lakewood Plaza,Atlanta,GA,30356
Tawsha Dimeloe,21988 Aberg Parkway,Gulfport,MS,39505
Gordie Alves,4 Hagan Crossing,Charleston,SC,29424
Ernest Bohman,1 Briar Crest Hill,Hartford,CT,06183
Norbie Dallmann,08083 Pearson Park,Roanoke,VA,24020
Marve Mirrlees,387 Paget Center,San Francisco,CA,94164
Fielding Deveraux,45843 Gulseth Avenue,Chicago,IL,60636
Lianna Brambley,72 Emmet Street,Erie,PA,16550
Eleni Revett,253 Marcy Parkway,Rochester,NY,14614
Fawn Muslim,0 Summer Ridge Point,El Paso,TX,88546
Robin Jurisic,056 Victoria Court,Detroit,MI,48232
Mariele Mohamed,91747 Surrey Court,Wilmington,DE,19892
Halimeda Chapier,58802 Coolidge Road,Los Angeles,CA,90101
Clerissa Masey,741 Dayton Lane,Tulsa,OK,74126
Pansy Kinkade,738 Hansons Crossing,Pasadena,CA,91103
Eleanor Yardley,9348 Village Green Lane,Winston Salem,NC,27116
Laurena Dominec,1 Dawn Junction,Burbank,CA,91505
Kerrill Pawlik,877 Dapin Trail,Metairie,LA,70033
Wynne Jardin,435 Drewry Hill,Kalamazoo,MI,49006
